{
  "type": "FeatureCollection",
  "features": [
    {
      "type": "Feature",
      "properties": {
        "norad_id": 41890,
        "name": "CYGFM07",
        "group": "weather",
        "lat": -9.113426733085332,
        "lon": 129.7021818702691,
        "alt_km": 419.1713643689254,
        "timestamp": "2025-12-25T16:53:14.296498+00:00",
        "meta_object_name": "CYGFM07",
        "meta_object_id": "2016-078G",
        "meta_epoch": "2025-12-25T02:08:18.875904",
        "meta_mean_motion": 15.50522977,
        "meta_eccentricity": 0.00093938,
        "meta_inclination": 34.9478,
        "meta_ra_of_asc_node": 300.4548,
        "meta_arg_of_pericenter": 319.9198,
        "meta_mean_anomaly": 40.083,
        "meta_ephemeris_type": 0,
        "meta_classification_type": "U",
        "meta_norad_cat_id": 41890,
        "meta_element_set_no": 999,
        "meta_rev_at_epoch": 50187,
        "meta_bstar": 0.00040403981,
        "meta_mean_motion_dot": 0.00023861,
        "meta_mean_motion_ddot": 0,
        "tle_line1": "1 41890U 16078G   25359.08910736  .00023861  00000+0  40404-3 0  9996",
        "tle_line2": "2 41890  34.9478 300.4548 0009393 319.9198  40.0830 15.50522977501876"
      },
      "geometry": {
        "type": "Point",
        "coordinates": [
          129.7021818702691,
          -9.113426733085332
        ]
      }
    },
    {
      "type": "Feature",
      "properties": {
        "norad_id": 41891,
        "name": "CYGFM03",
        "group": "weather",
        "lat": 14.535074425559195,
        "lon": -39.85286966192099,
        "alt_km": 410.4242683645771,
        "timestamp": "2025-12-25T16:53:14.296510+00:00",
        "meta_object_name": "CYGFM03",
        "meta_object_id": "2016-078H",
        "meta_epoch": "2025-12-25T01:19:20.476704",
        "meta_mean_motion": 15.504147,
        "meta_eccentricity": 0.00092269,
        "meta_inclination": 34.9431,
        "meta_ra_of_asc_node": 302.6047,
        "meta_arg_of_pericenter": 306.7099,
        "meta_mean_anomaly": 53.2776,
        "meta_ephemeris_type": 0,
        "meta_classification_type": "U",
        "meta_norad_cat_id": 41891,
        "meta_element_set_no": 999,
        "meta_rev_at_epoch": 50184,
        "meta_bstar": 0.00039735587,
        "meta_mean_motion_dot": 0.00023373,
        "meta_mean_motion_ddot": 0,
        "tle_line1": "1 41891U 16078H   25359.05509811  .00023373  00000+0  39736-3 0  9996",
        "tle_line2": "2 41891  34.9431 302.6047 0009226 306.7099  53.2776 15.50414700501849"
      },
      "geometry": {
        "type": "Point",
        "coordinates": [
          -39.85286966192099,
          14.535074425559195
        ]
      }
    },
    {
      "type": "Feature",
      "properties": {
        "norad_id": 43010,
        "name": "FENGYUN 3D",
        "group": "weather",
        "lat": -12.602897502907233,
        "lon": -31.762617697447233,
        "alt_km": 831.8204190287479,
        "timestamp": "2025-12-25T16:53:14.296530+00:00",
        "meta_object_name": "FENGYUN 3D",
        "meta_object_id": "2017-072A",
        "meta_epoch": "2025-12-25T06:47:54.742272",
        "meta_mean_motion": 14.19687441,
        "meta_eccentricity": 0.00015285,
        "meta_inclination": 98.9914,
        "meta_ra_of_asc_node": 325.782,
        "meta_arg_of_pericenter": 146.2462,
        "meta_mean_anomaly": 213.8811,
        "meta_ephemeris_type": 0,
        "meta_classification_type": "U",
        "meta_norad_cat_id": 43010,
        "meta_element_set_no": 999,
        "meta_rev_at_epoch": 42031,
        "meta_bstar": 7.0644157e-05,
        "meta_mean_motion_dot": 1.03e-06,
        "meta_mean_motion_ddot": 0,
        "tle_line1": "1 43010U 17072A   25359.28327248  .00000103  00000+0  70644-4 0  9993",
        "tle_line2": "2 43010  98.9914 325.7820 0001528 146.2462 213.8811 14.19687441420317"
      },
      "geometry": {
        "type": "Point",
        "coordinates": [
          -31.762617697447233,
          -12.602897502907233
        ]
      }
    },
    {
      "type": "Feature",
      "properties": {
        "norad_id": 43013,
        "name": "NOAA 20 (JPSS-1)",
        "group": "weather",
        "lat": 47.11853862925372,
        "lon": 125.41867474522651,
        "alt_km": 822.0898491014204,
        "timestamp": "2025-12-25T16:53:14.296544+00:00",
        "meta_object_name": "NOAA 20 (JPSS-1)",
        "meta_object_id": "2017-073A",
        "meta_epoch": "2025-12-25T01:02:33.236736",
        "meta_mean_motion": 14.19528938,
        "meta_eccentricity": 0.00020738,
        "meta_inclination": 98.7615,
        "meta_ra_of_asc_node": 295.2065,
        "meta_arg_of_pericenter": 69.6621,
        "meta_mean_anomaly": 290.4778,
        "meta_ephemeris_type": 0,
        "meta_classification_type": "U",
        "meta_norad_cat_id": 43013,
        "meta_element_set_no": 999,
        "meta_rev_at_epoch": 41976,
        "meta_bstar": 6.5292688e-05,
        "meta_mean_motion_dot": 9.4e-07,
        "meta_mean_motion_ddot": 0,
        "tle_line1": "1 43013U 17073A   25359.04344024  .00000094  00000+0  65293-4 0  9995",
        "tle_line2": "2 43013  98.7615 295.2065 0002073  69.6621 290.4778 14.19528938419764"
      },
      "geometry": {
        "type": "Point",
        "coordinates": [
          125.41867474522651,
          47.11853862925372
        ]
      }
    },
    {
      "type": "Feature",
      "properties": {
        "norad_id": 43226,
        "name": "GOES 17",
        "group": "weather",
        "lat": 0.07333725995551876,
        "lon": -101.74839719242462,
        "alt_km": 35773.88464790912,
        "timestamp": "2025-12-25T16:53:14.296566+00:00",
        "meta_object_name": "GOES 17",
        "meta_object_id": "2018-022A",
        "meta_epoch": "2025-12-24T22:56:44.494656",
        "meta_mean_motion": 1.00272054,
        "meta_eccentricity": 0.00030905,
        "meta_inclination": 0.4873,
        "meta_ra_of_asc_node": 89.0534,
        "meta_arg_of_pericenter": 190.9391,
        "meta_mean_anomaly": 68.4163,
        "meta_ephemeris_type": 0,
        "meta_classification_type": "U",
        "meta_norad_cat_id": 43226,
        "meta_element_set_no": 999,
        "meta_rev_at_epoch": 2867,
        "meta_bstar": 0,
        "meta_mean_motion_dot": -1.62e-06,
        "meta_mean_motion_ddot": 0,
        "tle_line1": "1 43226U 18022A   25358.95607054 -.00000162  00000+0  00000+0 0  9997",
        "tle_line2": "2 43226   0.4873  89.0534 0003090 190.9391  68.4163  1.00272054 28676"
      },
      "geometry": {
        "type": "Point",
        "coordinates": [
          -101.74839719242462,
          0.07333725995551876
        ]
      }
    },
    {
      "type": "Feature",
      "properties": {
        "norad_id": 43491,
        "name": "FENGYUN 2H",
        "group": "weather",
        "lat": -0.6135786460209753,
        "lon": 67.11274136476437,
        "alt_km": 35796.7095212004,
        "timestamp": "2025-12-25T16:53:14.296580+00:00",
        "meta_object_name": "FENGYUN 2H",
        "meta_object_id": "2018-050A",
        "meta_epoch": "2025-12-24T23:44:54.879648",
        "meta_mean_motion": 1.00270521,
        "meta_eccentricity": 0.00024075,
        "meta_inclination": 2.5805,
        "meta_ra_of_asc_node": 81.201,
        "meta_arg_of_pericenter": 166.3972,
        "meta_mean_anomaly": 281.7245,
        "meta_ephemeris_type": 0,
        "meta_classification_type": "U",
        "meta_norad_cat_id": 43491,
        "meta_element_set_no": 999,
        "meta_rev_at_epoch": 2769,
        "meta_bstar": 0,
        "meta_mean_motion_dot": -1.09e-06,
        "meta_mean_motion_ddot": 0,
        "tle_line1": "1 43491U 18050A   25358.98952407 -.00000109  00000+0  00000+0 0  9991",
        "tle_line2": "2 43491   2.5805  81.2010 0002407 166.3972 281.7245  1.00270521 27693"
      },
      "geometry": {
        "type": "Point",
        "coordinates": [
          67.11274136476437,
          -0.6135786460209753
        ]
      }
    },
    {
      "type": "Feature",
      "properties": {
        "norad_id": 43689,
        "name": "METOP-C",
        "group": "weather",
        "lat": 4.146994898426321,
        "lon": 56.63797828981876,
        "alt_km": 822.2386973615394,
        "timestamp": "2025-12-25T16:53:14.296591+00:00",
        "meta_object_name": "METOP-C",
        "meta_object_id": "2018-087A",
        "meta_epoch": "2025-12-25T06:43:54.056064",
        "meta_mean_motion": 14.21489066,
        "meta_eccentricity": 6.24e-05,
        "meta_inclination": 98.6912,
        "meta_ra_of_asc_node": 56.8569,
        "meta_arg_of_pericenter": 15.7397,
        "meta_mean_anomaly": 344.3799,
        "meta_ephemeris_type": 0,
        "meta_classification_type": "U",
        "meta_norad_cat_id": 43689,
        "meta_element_set_no": 999,
        "meta_rev_at_epoch": 37012,
        "meta_bstar": 8.0540723e-05,
        "meta_mean_motion_dot": 1.33e-06,
        "meta_mean_motion_ddot": 0,
        "tle_line1": "1 43689U 18087A   25359.28048676  .00000133  00000+0  80541-4 0  9997",
        "tle_line2": "2 43689  98.6912  56.8569 0000624  15.7397 344.3799 14.21489066370123"
      },
      "geometry": {
        "type": "Point",
        "coordinates": [
          56.63797828981876,
          4.146994898426321
        ]
      }
    }
  ]
}